STARLINK-1247_new
1 15236C 20012BL  21326.15624572  .00008799  00000-0  58958-3 0  3266
2 15236  53.0513 208.0431 0002051  78.7118 126.3820 15.06385488    18
STARLINK-1247_old
1 25236C 20012BL  21325.08368681  .00005474  00000-0  36688-3 0  3255
2 25236  53.0521 212.8578 0002009  76.4707  68.9196 15.06379045    13
